LEMUR-2-DEMBITZ         
1 42842U 17042T   26068.47492167  .00020231  00000+0  76561-3 0  9991
2 42842  97.3807 250.9241 0006961  17.1421 343.0051 15.26947128473114
STARLINK-34138          
1 63971U 25099V   26068.34322387  .00028264  00000+0  10320-2 0  9994
2 63971  43.0010 174.6815 0004306 288.6513  71.3871 15.27596925 47328
